NORAD_CAT_ID,EPOCH,MEAN_MOTION,ECCENTRICITY,INCLINATION,RA_OF_ASC_NODE,ARG_OF_PERICENTER,MEAN_ANOMALY,APOAPSIS,PERIAPSIS,BSTAR,COUNTRY_CODE,RCS_SIZE,NAME,LINE1,LINE2
37918,2025-08-09T06:54:56.812320,14.33702243,0.0055298,99.0101,165.4092,290.2208,69.3035,818.964,739.805,0.00049119,PRC,SMALL,0 FENGYUN 1C DEB,1 37918U 99025ENT 25221.28815755  .00001338  00000-0  49119-3 0  9998,2 37918  99.0101 165.4092 0055298 290.2208  69.3035 14.33702243 22097
37919,2025-08-07T13:08:45.716640,14.26358463,0.0049979,99.0419,153.2544,23.2028,337.1392,839.826,768.036,0.00037474,PRC,SMALL,0 FENGYUN 1C DEB,1 37919U 99025ENU 25219.54775135  .00000865  00000-0  37474-3 0  9997,2 37919  99.0419 153.2544 0049979  23.2028 337.1392 14.26358463806758
37921,2025-08-07T22:10:55.953408,13.95063072,0.0084691,99.0408,263.6332,86.0233,275.0605,972.675,849.211,0.00020613,PRC,SMALL,0 FENGYUN 1C DEB,1 37921U 99025ENW 25219.92425872  .00000243  00000-0  20613-3 0  9999,2 37921  99.0408 263.6332 0084691  86.0233 275.0605 13.95063072613796
37925,2025-08-09T08:14:53.057760,14.76791637,0.0060607,99.1026,74.3833,15.436,344.8677,682.003,596.94,0.0011541,PRC,SMALL,0 FENGYUN 1C DEB,1 37925U 99025EPA 25221.34366965  .00008284  00000-0  11541-2 0  9991,2 37925  99.1026  74.3833 0060607  15.4360 344.8677 14.76791637802001
37926,2025-08-08T17:37:08.226336,14.23136625,0.0053698,98.7348,284.8742,225.5211,260.993,853.391,776.142,0.0010093,PRC,SMALL,0 FENGYUN 1C DEB,1 37926U 99025EPB 25220.73412299  .00002269  00000-0  10093-2 0  9994,2 37926  98.7348 284.8742 0053698 225.5211 260.9930 14.23136625724771
37927,2025-08-06T04:56:42.131616,14.64092121,0.00063271,98.8047,352.309,310.1165,49.948,684.459,675.528,0.0027845699,PRC,SMALL,0 FENGYUN 1C DEB,1 37927U 99025EPC 25218.20604319  .00014602  00000-0  27846-2 0  9998,2 37927  98.8047 352.3090 0006327 310.1165  49.9480 14.64092121632312
37928,2025-08-08T21:43:46.428672,14.3650066,0.0074192,98.9331,90.9313,43.5779,317.1234,823.12,717.052,0.00051346,PRC,SMALL,0 FENGYUN 1C DEB,1 37928U 99025EPD 25220.90539848  .00001508  00000-0  51346-3 0  9997,2 37928  98.9331  90.9313 0074192  43.5779 317.1234 14.36500660793851
37935,2025-08-08T20:10:11.271936,2.29694996,0.7250943,47.9401,151.7914,83.5166,347.0111,35480.043,292.255,0.0013151,CIS,LARGE,0 BREEZE-M DEB (TANK),1 37935U 11069C   25220.84040824  .00002371  00000-0  13151-2 0  9991,2 37935  47.9401 151.7914 7250943  83.5166 347.0111  2.29694996113818
37959,2025-08-08T16:18:30.858048,14.56991037,0.0058245,74.0113,296.9259,107.927,46.9523,744.152,661.665,0.00041827,CIS,SMALL,0 COSMOS 2251 DEB,1 37959U 93036BPJ 25220.67952382  .00001894  00000-0  41827-3 0  9994,2 37959  74.0113 296.9259 0058245 107.9270  46.9523 14.56991037782903
37960,2025-08-07T06:09:04.401216,14.07221069,0.02516644,74.0585,50.2005,99.2286,263.7408,1051.281,686.517,0.00093185209,CIS,SMALL,0 COSMOS 2251 DEB,1 37960U 93036BPK 25219.25630094  .00002062  00000-0  93185-3 0  9993,2 37960  74.0585  50.2005 0251664  99.2286 263.7408 14.07221069756121
37961,2025-07-27T19:08:41.120160,14.5647138,0.0042976,74.0418,39.044,153.5762,206.7606,735.031,674.154,0.00085132,CIS,SMALL,0 COSMOS 2251 DEB,1 37961U 93036BPL 25208.79769815  .00003804  00000-0  85132-3 0  9993,2 37961  74.0418  39.0440 0042976 153.5762 206.7606 14.56471380780561
37966,2025-08-09T11:37:42.314592,14.99603575,0.0007731,73.9816,128.065,339.6072,20.4805,573.492,562.752,0.0029356,CIS,SMALL,0 COSMOS 2251 DEB,1 37966U 93036BPR 25221.48451753  .00036314  00000-0  29356-2 0  9995,2 37966  73.9816 128.0650 0007731 339.6072  20.4805 14.99603575836664
37967,2025-08-09T02:59:32.193024,14.38678311,0.0154307,74.0175,9.7076,177.6588,182.5325,873.061,652.68,0.0017024,CIS,SMALL,0 COSMOS 2251 DEB,1 37967U 93036BPS 25221.12467816  .00005974  00000-0  17024-2 0  9991,2 37967  74.0175   9.7076 0154307 177.6588 182.5325 14.38678311797336
37968,2025-08-03T03:45:14.163552,14.96892441,0.0089366,74.0011,178.5828,327.955,31.6218,638.658,514.356,0.0007766,CIS,SMALL,0 COSMOS 2251 DEB,1 37968U 93036BPT 25215.15641393  .00009640  00000-0  77660-3 0  9999,2 37968  74.0011 178.5828 0089366 327.9550  31.6218 14.96892441582486
37971,2025-08-05T22:16:42.682656,14.46403691,0.00703719,73.9938,283.2937,84.8129,276.1055,787.494,687.347,0.00074245558,CIS,SMALL,0 COSMOS 2251 DEB,1 37971U 93036BPW 25217.92827179  .00002723  00000-0  74246-3 0  9990,2 37971  73.9938 283.2937 0070372  84.8129 276.1055 14.46403691588143
37973,2025-08-08T05:57:09.715968,14.4120086,0.0040253,74.0352,177.9925,286.2739,73.399,783.247,725.824,0.00047614,CIS,SMALL,0 COSMOS 2251 DEB,1 37973U 93036BPY 25220.24802912  .00001525  00000-0  47614-3 0  9997,2 37973  74.0352 177.9925 0040253 286.2739  73.3990 14.41200860631662
37975,2025-08-09T07:06:30.018528,14.6998234,0.0105041,74.003,208.7998,233.4945,125.6517,735.068,587.185,0.0018336,CIS,SMALL,0 COSMOS 2251 DEB,1 37975U 93036BQA 25221.29618077  .00011955  00000-0  18336-2 0  9998,2 37975  74.0030 208.7998 0105041 233.4945 125.6517 14.69982340843964
37978,2025-08-09T00:54:45.297792,15.25165316,0.0029615,74.0415,2.1301,60.0491,300.3644,510.632,469.95,0.0030875,CIS,SMALL,0 COSMOS 2251 DEB,1 37978U 93036BQD 25221.03802428  .00079214  00000-0  30875-2 0  9992,2 37978  74.0415   2.1301 0029615  60.0491 300.3644 15.25165316831611
37985,2025-08-08T11:35:50.904384,14.3542948,0.0022517,74.0257,137.4699,292.0692,67.8069,789.745,757.538,3.3841e-05,CIS,SMALL,0 COSMOS 2251 DEB,1 37985U 93036BQL 25220.48322806  .00000071  00000-0  33841-4 0  9998,2 37985  74.0257 137.4699 0022517 292.0692  67.8069 14.35429480631056
37988,2025-08-06T13:29:46.718592,14.67003332,0.0069039,74.0623,271.2983,344.1616,15.7392,719.317,621.989,0.0005032,CIS,SMALL,0 COSMOS 2251 DEB,1 37988U 93036BQP 25218.56234628  .00002890  00000-0  50320-3 0  9992,2 37988  74.0623 271.2983 0069039 344.1616  15.7392 14.67003332222386
37993,2025-08-07T06:03:22.828320,14.57853621,0.00244071,74.0228,49.907,168.438,191.735,717.391,682.839,0.00088929392,CIS,SMALL,0 COSMOS 2251 DEB,1 37993U 93036BQU 25219.25234755  .00004062  00000-0  88929-3 0  9995,2 37993  74.0228  49.9070 0024407 168.4380 191.7350 14.57853621634586
37994,2025-08-09T04:54:16.649568,14.39257329,0.0024624,74.0366,147.4308,261.2984,98.5381,778.535,743.376,0.0002522,CIS,SMALL,0 COSMOS 2251 DEB,1 37994U 93036BQV 25221.20435937  .00000759  00000-0  25220-3 0  9993,2 37994  74.0366 147.4308 0024624 261.2984  98.5381 14.39257329752763
37996,2025-08-06T06:09:13.792896,14.06985608,0.0231815,74.0603,68.4747,209.154,149.6496,1037.723,701.691,0.0023403,CIS,SMALL,0 COSMOS 2251 DEB,1 37996U 93036BQX 25218.25640964  .00004966  00000-0  23403-2 0  9998,2 37996  74.0603  68.4747 0231815 209.1540 149.6496 14.06985608218538
37998,2025-07-31T23:49:55.236288,14.44784782,0.0020779,74.0377,124.2628,235.7321,124.1869,757.532,727.939,0.00041683,CIS,SMALL,0 COSMOS 2251 DEB,1 37998U 93036BQZ 25212.99300042  .00001425  00000-0  41683-3 0  9993,2 37998  74.0377 124.2628 0020779 235.7321 124.1869 14.44784782623550
38001,2025-08-08T21:12:34.489728,14.77130035,0.0067756,74.0032,19.9971,200.4495,310.5745,685.941,590.859,0.00084597,CIS,SMALL,0 COSMOS 2251 DEB,1 38001U 93036BRC 25220.88373252  .00006182  00000-0  84597-3 0  9995,2 38001  74.0032  19.9971 0067756 200.4495 310.5745 14.77130035728486
38006,2025-08-09T11:59:48.022368,14.43657996,0.007632,73.8481,273.8628,251.7436,107.5404,800.815,692.065,0.0018771,CIS,SMALL,0 COSMOS 2251 DEB,1 38006U 93036BRH 25221.49986137  .00006577  00000-0  18771-2 0  9998,2 38006  73.8481 273.8628 0076320 251.7436 107.5404 14.43657996812367
38017,2025-08-07T10:46:58.145376,14.41081346,0.0113085,86.3401,221.179,162.8179,197.69,835.594,674.266,0.0032283,US,SMALL,0 IRIDIUM 33 DEB,1 38017U 97051YD  25219.44928409  .00011242  00000-0  32283-2 0  9990,2 38017  86.3401 221.1790 0113085 162.8179 197.6900 14.41081346751734
38022,2025-08-08T20:19:33.358368,14.40027987,0.004759,86.2659,71.5102,101.0711,259.5845,792.371,724.445,0.00079405,US,SMALL,0 IRIDIUM 33 DEB,1 38022U 97051YJ  25220.84691387  .00002554  00000-0  79405-3 0  9998,2 38022  86.2659  71.5102 0047590 101.0711 259.5845 14.40027987673810
38028,2025-08-08T19:09:18.021600,14.45649152,0.0028568,86.3204,54.9737,177.505,182.63,760.231,719.562,0.00019027,US,SMALL,0 IRIDIUM 33 DEB,1 38028U 97051YQ  25220.79812525  .00000696  00000-0  19027-3 0  9996,2 38028  86.3204  54.9737 0028568 177.5050 182.6300 14.45649152636753
38054,2025-08-08T03:22:28.927776,13.61335682,0.0360635,73.9515,112.753,115.6162,32.5526,1298.038,763.65,0.0023762,CIS,SMALL,0 COSMOS 2251 DEB,1 38054U 93036BRL 25220.14061259  .00002776  00000-0  23762-2 0  9994,2 38054  73.9515 112.7530 0360635 115.6162  32.5526 13.61335682654563
38055,2025-08-07T10:17:45.580992,14.74805779,0.0070055,74.0103,96.2856,255.8212,284.4267,694.976,596.564,0.00043275,CIS,SMALL,0 COSMOS 2251 DEB,1 38055U 93036BRM 25219.42899978  .00002980  00000-0  43275-3 0  9990,2 38055  74.0103  96.2856 0070055 255.8212 284.4267 14.74805779780590
38060,2025-08-07T03:48:50.415840,14.62932238,0.006163,74.04,179.979,318.7822,40.8699,727.246,640.202,0.0004466,CIS,SMALL,0 COSMOS 2251 DEB,1 38060U 93036BRS 25219.15891685  .00002317  00000-0  44660-3 0  9996,2 38060  74.0400 179.9790 0061630 318.7822  40.8699 14.62932238700983
38062,2025-08-08T06:29:38.279616,14.88034865,0.0019651,74.0103,184.3465,336.6426,90.6021,617.799,590.357,0.0015154,CIS,SMALL,0 COSMOS 2251 DEB,1 38062U 93036BRU 25220.27058194  .00013964  00000-0  15154-2 0  9998,2 38062  74.0103 184.3465 0019651 336.6426  90.6021 14.88034865611451
38064,2025-08-08T18:30:43.546176,14.55044947,0.0048222,74.0249,3.0249,152.1116,208.2648,743.397,675.044,0.00072063,CIS,SMALL,0 COSMOS 2251 DEB,1 38064U 93036BRW 25220.77133734  .00003127  00000-0  72063-3 0  9992,2 38064  74.0249   3.0249 0048222 152.1116 208.2648 14.55044947700327
